BEIDOU-2 IGSO-1 (C06)   
1 36828U 10036A   26132.68902604 -.00000041  00000+0  00000+0 0  9990
2 36828  54.2951 163.2807 0058855 224.5644 197.8413  1.00282752 57743
BEIDOU-2 G4 (C04)       
1 37210U 10057A   26136.77473183 -.00000103  00000+0  00000+0 0  9997
2 37210   3.5686  69.1199 0005765 208.4930  35.7623  1.00271939 56972
BEIDOU-2 IGSO-2 (C07)   
1 37256U 10068A   26135.72421087 -.00000229  00000+0  00000+0 0  9998
2 37256  47.6108 272.2352 0054345 211.9136 116.2636  1.00294155 56461
BEIDOU-2 IGSO-3 (C08)   
1 37384U 11013A   26134.75077336 -.00000206  00000+0  00000+0 0  9992
2 37384  62.3634  40.4703 0033942 185.9417  24.6219  1.00276202 55324
BEIDOU-2 IGSO-4 (C09)   
1 37763U 11038A   26136.54767747  .00000072  00000+0  00000+0 0  9991
2 37763  54.5937 165.9558 0158299 231.2624 125.9832  1.00290795 54321
BEIDOU-2 IGSO-5 (C10)   
1 37948U 11073A   26136.85233464 -.00000175  00000+0  00000+0 0  9998
2 37948  47.7378 271.9321 0111945 220.5685 141.2978  1.00255472 52828
BEIDOU-2 G5 (C05)       
1 38091U 12008A   26136.82592758  .00000066  00000+0  00000+0 0  9996
2 38091   3.4952  69.8749 0010977 270.3418 250.3230  1.00272131 52052
BEIDOU-2 M3 (C11)       
1 38250U 12018A   26135.97120564 -.00000052  00000+0  00000+0 0  9997
2 38250  55.7865 305.9605 0019729 275.9386  83.8173  1.86229756 95349
BEIDOU-2 M4 (C12)       
1 38251U 12018B   26136.44040700 -.00000053  00000+0  00000+0 0  9995
2 38251  55.6865 305.1615 0010975 280.9040  78.9509  1.86229529 95356
BEIDOU-2 M6 (C14)       
1 38775U 12050B   26136.15025056 -.00000044  00000+0  00000+0 0  9997
2 38775  56.5176  63.9535 0014302 352.0732   7.8852  1.86230812 92715
BEIDOU-2 G6 (C02)       
1 38953U 12059A   26136.83095427 -.00000167  00000+0  00000+0 0  9994
2 38953   4.3418  73.8482 0010268 320.0961 223.8091  1.00270923 49596
BEIDOU-3S IGSO-1S (C31) 
1 40549U 15019A   26136.40526421 -.00000185  00000+0  00000+0 0  9993
2 40549  49.2565 295.8433 0037963 190.0576 348.0067  1.00256919 40752
BEIDOU-3S M2S (C58)     
1 40748U 15037A   26136.10634049 -.00000053  00000+0  00000+0 0  9991
2 40748  54.8996 303.1505 0007607 266.3231  93.5670  1.86232017 73523
BEIDOU-3S M1S (C57)     
1 40749U 15037B   26134.70702215 -.00000049  00000+0  00000+0 0  9992
2 40749  54.8981 303.1861 0004118  56.2797 303.7422  1.86254777 73506
BEIDOU-3S IGSO-2S (C56) 
1 40938U 15053A   26136.81413965 -.00000163  00000+0  00000+0 0  9992
2 40938  49.2723 259.1558 0064719 190.9616 173.9397  1.00266682 39043
BEIDOU-2 IGSO-6 (C13)   
1 41434U 16021A   26136.69608406 -.00000172  00000+0  00000+0 0  9992
2 41434  60.1837  38.3538 0057257 232.4199 308.6927  1.00264456 37169
BEIDOU-2 G7 (C03)       
1 41586U 16037A   26136.79042289 -.00000344  00000+0  00000+0 0  9990
2 41586   1.6419  69.0283 0007336 358.9876 201.5768  1.00267522  6572
BEIDOU-3 M1 (C19)       
1 43001U 17069A   26133.76780652 -.00000035  00000+0  00000+0 0  9994
2 43001  56.6631  64.2188 0011641 320.5367  39.3602  1.86231382 57969
BEIDOU-3 M2 (C20)       
1 43002U 17069B   26133.16952611 -.00000032  00000+0  00000+0 0  9992
2 43002  56.6620  64.2738 0009693 344.6836  15.2699  1.86229936 57940
BEIDOU-3 M7 (C27)       
1 43107U 18003A   26134.52202215 -.00000050  00000+0  00000+0 0  9996
2 43107  54.3594 303.4891 0005239  85.7155 274.3282  1.86228234 56729
BEIDOU-3 M8 (C28)       
1 43108U 18003B   26132.85647029 -.00000043  00000+0  00000+0 0  9999
2 43108  54.3540 303.5291 0002179 277.0252  82.9401  1.86231209 56700
BEIDOU-3 M4 (C22)       
1 43207U 18018A   26135.44695527 -.00000042  00000+0  00000+0 0  9998
2 43207  56.6235  64.2285 0007863   8.9950 350.9990  1.86231263 56139
BEIDOU-3 M3 (C21)       
1 43208U 18018B   26136.05036845 -.00000043  00000+0  00000+0 0  9990
2 43208  56.6232  64.2126 0009570 334.4233  25.5099  1.86231106 56141
BEIDOU-3 M9 (C29)       
1 43245U 18029A   26136.26803635 -.00000054  00000+0  00000+0 0  9997
2 43245  54.2239 301.0650 0000859 106.1260 253.8580  1.86228142 55306
BEIDOU-3 M10 (C30)      
1 43246U 18029B   26136.20255686 -.00000054  00000+0  00000+0 0  9999
2 43246  54.2218 301.0940 0004520  37.4467 322.5595  1.86229317 55282
BEIDOU-2 IGSO-7 (C16)   
1 43539U 18057A   26136.48051824  .00000012  00000+0  00000+0 0  9996
2 43539  55.1881 163.3357 0104086 237.8264 118.0001  1.00260989 28807
BEIDOU-3 M5 (C23)       
1 43581U 18062A   26135.35288752  .00000098  00000+0  00000+0 0  9990
2 43581  54.0836 183.4210 0005013 287.6962  72.3442  1.86228530 53024
BEIDOU-3 M6 (C24)       
1 43582U 18062B   26136.29011596  .00000094  00000+0  00000+0 0  9991
2 43582  54.0833 183.3783 0004761  15.4791 344.6307  1.86227494 53047
BEIDOU-3 M12 (C26)      
1 43602U 18067A   26135.15459196  .00000100  00000+0  00000+0 0  9993
2 43602  54.1785 182.1610 0007834  32.1645 327.9780  1.86227905 52507
BEIDOU-3 M11 (C25)      
1 43603U 18067B   26134.75259480  .00000100  00000+0  00000+0 0  9993
2 43603  54.1758 182.1382 0004429  17.6934 342.4159  1.86227418 52523
BEIDOU-3 M13 (C32)      
1 43622U 18072A   26133.63367348 -.00000035  00000+0  00000+0 0  9997
2 43622  56.5956  63.8000 0008352 321.7173  38.2058  1.86231484 52015
BEIDOU-3 M14 (C33)      
1 43623U 18072B   26134.03606905 -.00000037  00000+0  00000+0 0  9990
2 43623  56.5980  63.7808 0006648 347.7176  12.2477  1.86231503 52014
BEIDOU-3 M16 (C35)      
1 43647U 18078A   26136.33972034 -.00000054  00000+0  00000+0 0  9995
2 43647  54.1200 301.1019 0007832  39.9569 320.0752  1.86232180 51561
BEIDOU-3 M15 (C34)      
1 43648U 18078B   26134.85818057 -.00000051  00000+0  00000+0 0  9992
2 43648  54.1176 301.1547 0004943  52.6427 307.3818  1.86232411 51552
BEIDOU-3 G1 (C59)       
1 43683U 18085A   26136.77473183 -.00000099  00000+0  00000+0 0  9991
2 43683   2.7878  98.2485 0007879 340.8221 234.2921  1.00271617 27743
BEIDOU-3 M17 (C36)      
1 43706U 18093A   26135.55362170  .00000098  00000+0  00000+0 0  9992
2 43706  54.1670 183.4038 0009711 290.7134  67.5994  1.86228279 50927
BEIDOU-3 M18 (C37)      
1 43707U 18093B   26135.41922228  .00000098  00000+0  00000+0 0  9994
2 43707  54.1679 183.4006 0007379 322.1617  37.8817  1.86226387 50928
BEIDOU-3 IGSO-1 (C38)   
1 44204U 19023A   26132.76772565 -.00000227  00000+0  00000+0 0  9998
2 44204  58.6468  38.0171 0023856 234.3090 349.8662  1.00250503  6851
BEIDOU-2 G8 (C01)       
1 44231U 19027A   26136.77161182 -.00000237  00000+0  00000+0 0  9995
2 44231   1.5779  74.4352 0010740 280.6580 301.7078  1.00271612 25767
BEIDOU-3 IGSO-2 (C39)   
1 44337U 19035A   26132.65390358 -.00000046  00000+0  00000+0 0  9991
2 44337  55.2385 159.1745 0039680 215.7907 210.7620  1.00277740 25317
BEIDOU-3 M24 (C46)      
1 44542U 19061A   26135.48828429  .00000098  00000+0  00000+0 0  9993
2 44542  54.3946 183.8311 0008055   2.6131 357.4867  1.86229171 45183
BEIDOU-3 M23 (C45)      
1 44543U 19061B   26136.15878090  .00000095  00000+0  00000+0 0  9995
2 44543  54.3933 183.7769 0005262 341.9051  19.5222  1.86227232 45203
BEIDOU-3 IGSO-3 (C40)   
1 44709U 19073A   26120.85038409 -.00000212  00000+0  00000+0 0  9996
2 44709  54.8842 281.4069 0042404 188.8195 170.9972  1.00251230 23982
BEIDOU-3 M22 (C44)      
1 44793U 19078A   26133.17974627 -.00000045  00000+0  00000+0 0  9998
2 44793  53.9691 301.0594 0007131  47.8476 312.1989  1.86227440 43994
BEIDOU-3 M21 (C43)      
1 44794U 19078B   26136.54150291 -.00000055  00000+0  00000+0 0  9997
2 44794  53.9390 300.9027 0004901  45.2623 314.7514  1.86227806 44065
BEIDOU-3 M19 (C41)      
1 44864U 19090A   26134.37148076 -.00000039  00000+0  00000+0 0  9998
2 44864  56.5302  63.9086 0019040 296.9236 245.2774  1.86231675 43605
BEIDOU-3 M20 (C42)      
1 44865U 19090B   26136.39480987 -.00000044  00000+0  00000+0 0  9999
2 44865  56.5338  63.8761 0016724 310.3790 237.9537  1.86231130 43629
BEIDOU-3 G2 (C60)       
1 45344U 20017A   26136.83017426 -.00000132  00000+0  00000+0 0  9994
2 45344   2.8009  46.8446 0002363   8.6584 197.9523  1.00271751 22945
BEIDOU-3 G3 (C61)       
1 45807U 20040A   26136.83615429 -.00000345  00000+0  00000+0 0  9997
2 45807   2.3699  67.3608 0003106 332.5025 246.2544  1.00272904 21752
BEIDOU-3 G4 (C62)       
1 56564U 23066A   26136.77074514 -.00000271  00000+0  00000+0 0  9995
2 56564   0.5277 323.9798 0003513 173.9926 153.9959  1.00274717 11078
BEIDOU-3 M28 (C50)      
1 58654U 23207A   26136.08172179 -.00000046  00000+0  00000+0 0  9994
2 58654  55.7257  63.3860 0004147 332.0936  27.8658  1.86229610 16243
BEIDOU-3 M26 (C48)      
1 58655U 23207B   26133.19442925 -.00000035  00000+0  00000+0 0  9991
2 58655  55.7254  63.4698 0004439 309.9196  50.0251  1.86229676 16177
BEIDOU-3 M25 (C47)      
1 61186U 24168B   26136.77334516 -.00000055  00000+0  00000+0 0  9996
2 61186  54.5026 303.3336 0003040 312.6101  44.0475  1.86229807 11197
BEIDOU-3 M27 (C49)      
1 61187U 24168C   26136.57389728 -.00000055  00000+0  00000+0 0  9990
2 61187  54.4980 303.3235 0002214  45.5930 312.3649  1.86229905  8669
